CCSDS_OMM_VERS = 2.0
CREATION_DATE  = 
ORIGINATOR     = 

OBJECT_NAME    = STARLINK-36339
OBJECT_ID      = 2026-003G
CENTER_NAME    = EARTH
REF_FRAME      = TEME
TIME_SYSTEM    = UTC
MEAN_ELEMENT_THEORY = SGP/SGP4

EPOCH          = 2026-01-30T04:00:01.999584
MEAN_MOTION    = 15.60538696
ECCENTRICITY   = .000122
INCLINATION    = 43.0000
RA_OF_ASC_NODE = 86.9214
ARG_OF_PERICENTER = 279.0423
MEAN_ANOMALY   = 162.7924

EPHEMERIS_TYPE = 0
CLASSIFICATION_TYPE = U
NORAD_CAT_ID   = 67340
ELEMENT_SET_NO = 999
REV_AT_EPOCH   = 448
BSTAR          = -.27255E-1
MEAN_MOTION_DOT = -.2025519E-1
MEAN_MOTION_DDOT = 0

CCSDS_OMM_VERS = 2.0
CREATION_DATE  = 
ORIGINATOR     = 

OBJECT_NAME    = STARLINK-36453
OBJECT_ID      = 2026-003H
CENTER_NAME    = EARTH
REF_FRAME      = TEME
TIME_SYSTEM    = UTC
MEAN_ELEMENT_THEORY = SGP/SGP4

EPOCH          = 2026-01-30T04:00:01.999584
MEAN_MOTION    = 15.60539390
ECCENTRICITY   = .0001047
INCLINATION    = 42.9999
RA_OF_ASC_NODE = 86.9158
ARG_OF_PERICENTER = 280.9651
MEAN_ANOMALY   = 162.7846

EPHEMERIS_TYPE = 0
CLASSIFICATION_TYPE = U
NORAD_CAT_ID   = 67341
ELEMENT_SET_NO = 999
REV_AT_EPOCH   = 448
BSTAR          = -.27255E-1
MEAN_MOTION_DOT = -.202546E-1
MEAN_MOTION_DDOT = 0

CCSDS_OMM_VERS = 2.0
CREATION_DATE  = 
ORIGINATOR     = 

OBJECT_NAME    = STARLINK-36432
OBJECT_ID      = 2026-003J
CENTER_NAME    = EARTH
REF_FRAME      = TEME
TIME_SYSTEM    = UTC
MEAN_ELEMENT_THEORY = SGP/SGP4

EPOCH          = 2026-01-30T04:00:01.999584
MEAN_MOTION    = 15.60538228
ECCENTRICITY   = .0001043
INCLINATION    = 43.0001
RA_OF_ASC_NODE = 86.9112
ARG_OF_PERICENTER = 283.3755
MEAN_ANOMALY   = 162.2903

EPHEMERIS_TYPE = 0
CLASSIFICATION_TYPE = U
NORAD_CAT_ID   = 67342
ELEMENT_SET_NO = 999
REV_AT_EPOCH   = 447
BSTAR          = -.27214E-1
MEAN_MOTION_DOT = -.2022721E-1
MEAN_MOTION_DDOT = 0

CCSDS_OMM_VERS = 2.0
CREATION_DATE  = 
ORIGINATOR     = 

OBJECT_NAME    = STARLINK-36458
OBJECT_ID      = 2026-003K
CENTER_NAME    = EARTH
REF_FRAME      = TEME
TIME_SYSTEM    = UTC
MEAN_ELEMENT_THEORY = SGP/SGP4

EPOCH          = 2026-01-30T04:00:01.999584
MEAN_MOTION    = 15.60541494
ECCENTRICITY   = .0001109
INCLINATION    = 43.0001
RA_OF_ASC_NODE = 86.9069
ARG_OF_PERICENTER = 283.6238
MEAN_ANOMALY   = 163.9580

EPHEMERIS_TYPE = 0
CLASSIFICATION_TYPE = U
NORAD_CAT_ID   = 67343
ELEMENT_SET_NO = 999
REV_AT_EPOCH   = 448
BSTAR          = -.27279E-1
MEAN_MOTION_DOT = -.202717E-1
MEAN_MOTION_DDOT = 0

CCSDS_OMM_VERS = 2.0
CREATION_DATE  = 
ORIGINATOR     = 

OBJECT_NAME    = STARLINK-36422
OBJECT_ID      = 2026-003L
CENTER_NAME    = EARTH
REF_FRAME      = TEME
TIME_SYSTEM    = UTC
MEAN_ELEMENT_THEORY = SGP/SGP4

EPOCH          = 2026-01-30T04:00:01.999584
MEAN_MOTION    = 15.60546858
ECCENTRICITY   = .0001117
INCLINATION    = 43.0000
RA_OF_ASC_NODE = 86.9010
ARG_OF_PERICENTER = 282.1261
MEAN_ANOMALY   = 167.3728

EPHEMERIS_TYPE = 0
CLASSIFICATION_TYPE = U
NORAD_CAT_ID   = 67344
ELEMENT_SET_NO = 999
REV_AT_EPOCH   = 447
BSTAR          = -.2741E-1
MEAN_MOTION_DOT = -.2036038E-1
MEAN_MOTION_DDOT = 0

CCSDS_OMM_VERS = 2.0
CREATION_DATE  = 
ORIGINATOR     = 

OBJECT_NAME    = STARLINK-35676
OBJECT_ID      = 2026-003M
CENTER_NAME    = EARTH
REF_FRAME      = TEME
TIME_SYSTEM    = UTC
MEAN_ELEMENT_THEORY = SGP/SGP4

EPOCH          = 2026-01-30T04:00:01.999584
MEAN_MOTION    = 15.60543861
ECCENTRICITY   = .0001051
INCLINATION    = 42.9999
RA_OF_ASC_NODE = 86.8966
ARG_OF_PERICENTER = 281.9852
MEAN_ANOMALY   = 169.4319

EPHEMERIS_TYPE = 0
CLASSIFICATION_TYPE = U
NORAD_CAT_ID   = 67345
ELEMENT_SET_NO = 999
REV_AT_EPOCH   = 447
BSTAR          = -.27356E-1
MEAN_MOTION_DOT = -.203231E-1
MEAN_MOTION_DDOT = 0

CCSDS_OMM_VERS = 2.0
CREATION_DATE  = 
ORIGINATOR     = 

OBJECT_NAME    = STARLINK-36472
OBJECT_ID      = 2026-003N
CENTER_NAME    = EARTH
REF_FRAME      = TEME
TIME_SYSTEM    = UTC
MEAN_ELEMENT_THEORY = SGP/SGP4

EPOCH          = 2026-01-30T04:00:01.999584
MEAN_MOTION    = 15.60540365
ECCENTRICITY   = .0001144
INCLINATION    = 42.9999
RA_OF_ASC_NODE = 86.8920
ARG_OF_PERICENTER = 281.2428
MEAN_ANOMALY   = 172.0913

EPHEMERIS_TYPE = 0
CLASSIFICATION_TYPE = U
NORAD_CAT_ID   = 67346
ELEMENT_SET_NO = 999
REV_AT_EPOCH   = 447
BSTAR          = -.27263E-1
MEAN_MOTION_DOT = -.2026111E-1
MEAN_MOTION_DDOT = 0

CCSDS_OMM_VERS = 2.0
CREATION_DATE  = 
ORIGINATOR     = 

OBJECT_NAME    = STARLINK-36420
OBJECT_ID      = 2026-003P
CENTER_NAME    = EARTH
REF_FRAME      = TEME
TIME_SYSTEM    = UTC
MEAN_ELEMENT_THEORY = SGP/SGP4

EPOCH          = 2026-01-30T04:00:01.999584
MEAN_MOTION    = 15.60541815
ECCENTRICITY   = .0001071
INCLINATION    = 42.9999
RA_OF_ASC_NODE = 86.8822
ARG_OF_PERICENTER = 285.8231
MEAN_ANOMALY   = 171.3452

EPHEMERIS_TYPE = 0
CLASSIFICATION_TYPE = U
NORAD_CAT_ID   = 67347
ELEMENT_SET_NO = 999
REV_AT_EPOCH   = 448
BSTAR          = -.27319E-1
MEAN_MOTION_DOT = -.2029784E-1
MEAN_MOTION_DDOT = 0

CCSDS_OMM_VERS = 2.0
CREATION_DATE  = 
ORIGINATOR     = 

OBJECT_NAME    = STARLINK-36467
OBJECT_ID      = 2026-003Q
CENTER_NAME    = EARTH
REF_FRAME      = TEME
TIME_SYSTEM    = UTC
MEAN_ELEMENT_THEORY = SGP/SGP4

EPOCH          = 2026-01-30T04:00:01.999584
MEAN_MOTION    = 15.60540247
ECCENTRICITY   = .0001162
INCLINATION    = 43.0001
RA_OF_ASC_NODE = 86.8873
ARG_OF_PERICENTER = 283.0805
MEAN_ANOMALY   = 172.1690

EPHEMERIS_TYPE = 0
CLASSIFICATION_TYPE = U
NORAD_CAT_ID   = 67348
ELEMENT_SET_NO = 999
REV_AT_EPOCH   = 448
BSTAR          = -.27247E-1
MEAN_MOTION_DOT = -.2025079E-1
MEAN_MOTION_DDOT = 0

CCSDS_OMM_VERS = 2.0
CREATION_DATE  = 
ORIGINATOR     = 

OBJECT_NAME    = STARLINK-36457
OBJECT_ID      = 2026-003R
CENTER_NAME    = EARTH
REF_FRAME      = TEME
TIME_SYSTEM    = UTC
MEAN_ELEMENT_THEORY = SGP/SGP4

EPOCH          = 2026-01-30T04:00:01.999584
MEAN_MOTION    = 15.60542174
ECCENTRICITY   = .0001184
INCLINATION    = 42.9998
RA_OF_ASC_NODE = 86.8773
ARG_OF_PERICENTER = 279.4361
MEAN_ANOMALY   = 179.6505

EPHEMERIS_TYPE = 0
CLASSIFICATION_TYPE = U
NORAD_CAT_ID   = 67349
ELEMENT_SET_NO = 999
REV_AT_EPOCH   = 448
BSTAR          = -.27321E-1
MEAN_MOTION_DOT = -.2030039E-1
MEAN_MOTION_DDOT = 0

CCSDS_OMM_VERS = 2.0
CREATION_DATE  = 
ORIGINATOR     = 

OBJECT_NAME    = STARLINK-36475
OBJECT_ID      = 2026-003S
CENTER_NAME    = EARTH
REF_FRAME      = TEME
TIME_SYSTEM    = UTC
MEAN_ELEMENT_THEORY = SGP/SGP4

EPOCH          = 2026-01-30T04:00:01.999584
MEAN_MOTION    = 15.60541469
ECCENTRICITY   = .0001151
INCLINATION    = 42.9997
RA_OF_ASC_NODE = 86.8719
ARG_OF_PERICENTER = 283.1070
MEAN_ANOMALY   = 177.8970

EPHEMERIS_TYPE = 0
CLASSIFICATION_TYPE = U
NORAD_CAT_ID   = 67350
ELEMENT_SET_NO = 999
REV_AT_EPOCH   = 447
BSTAR          = -.27328E-1
MEAN_MOTION_DOT = -.2030422E-1
MEAN_MOTION_DDOT = 0

CCSDS_OMM_VERS = 2.0
CREATION_DATE  = 
ORIGINATOR     = 

OBJECT_NAME    = STARLINK-36478
OBJECT_ID      = 2026-003T
CENTER_NAME    = EARTH
REF_FRAME      = TEME
TIME_SYSTEM    = UTC
MEAN_ELEMENT_THEORY = SGP/SGP4

EPOCH          = 2026-01-30T04:00:01.999584
MEAN_MOTION    = 15.60539602
ECCENTRICITY   = .0001104
INCLINATION    = 42.9998
RA_OF_ASC_NODE = 86.8678
ARG_OF_PERICENTER = 280.5440
MEAN_ANOMALY   = 182.3769

EPHEMERIS_TYPE = 0
CLASSIFICATION_TYPE = U
NORAD_CAT_ID   = 67351
ELEMENT_SET_NO = 999
REV_AT_EPOCH   = 447
BSTAR          = -.27275E-1
MEAN_MOTION_DOT = -.2026798E-1
MEAN_MOTION_DDOT = 0

