STARLINK-36339          
1 67340U 26003G   26030.16668981 -.02025519  00000+0 -27255-1 0  9994
2 67340  43.0000  86.9214 0001220 279.0423 162.7924 15.60538696  4487
STARLINK-36453          
1 67341U 26003H   26030.16668981 -.02025460  00000+0 -27255-1 0  9990
2 67341  42.9999  86.9158 0001047 280.9651 162.7846 15.60539390  4486
STARLINK-36432          
1 67342U 26003J   26030.16668981 -.02022721  00000+0 -27214-1 0  9993
2 67342  43.0001  86.9112 0001043 283.3755 162.2903 15.60538228  4478
STARLINK-36458          
1 67343U 26003K   26030.16668981 -.02027170  00000+0 -27279-1 0  9998
2 67343  43.0001  86.9069 0001109 283.6238 163.9580 15.60541494  4481
STARLINK-36422          
1 67344U 26003L   26030.16668981 -.02036038  00000+0 -27410-1 0  9999
2 67344  43.0000  86.9010 0001117 282.1261 167.3728 15.60546858  4476
STARLINK-35676          
1 67345U 26003M   26030.16668981 -.02032310  00000+0 -27356-1 0  9998
2 67345  42.9999  86.8966 0001051 281.9852 169.4319 15.60543861  4471
STARLINK-36472          
1 67346U 26003N   26030.16668981 -.02026111  00000+0 -27263-1 0  9998
2 67346  42.9999  86.8920 0001144 281.2428 172.0913 15.60540365  4473
STARLINK-36420          
1 67347U 26003P   26030.16668981 -.02029784  00000+0 -27319-1 0  9990
2 67347  42.9999  86.8822 0001071 285.8231 171.3452 15.60541815  4488
STARLINK-36467          
1 67348U 26003Q   26030.16668981 -.02025079  00000+0 -27247-1 0  9994
2 67348  43.0001  86.8873 0001162 283.0805 172.1690 15.60540247  4480
STARLINK-36457          
1 67349U 26003R   26030.16668981 -.02030039  00000+0 -27321-1 0  9990
2 67349  42.9998  86.8773 0001184 279.4361 179.6505 15.60542174  4481
STARLINK-36475          
1 67350U 26003S   26030.16668981 -.02030422  00000+0 -27328-1 0  9995
2 67350  42.9997  86.8719 0001151 283.1070 177.8970 15.60541469  4476
STARLINK-36478          
1 67351U 26003T   26030.16668981 -.02026798  00000+0 -27275-1 0  9998
2 67351  42.9998  86.8678 0001104 280.5440 182.3769 15.60539602  4475
